{"type": "FeatureCollection", "features": [ {"type": "Feature", "properties": {"norad_id": 45358, "name": "COSMOS 2545 (760)", "group": "glo-ops", "lat": 3.028792151079348, "lon": 137.1278492054374, "alt_km": 19121.898878986834, "timestamp": "2025-12-23T11:34:48.425834+00:00", "meta": {"OBJECT_NAME": "COSMOS 2545 (760)", "OBJECT_ID": "2020-018A", "EPOCH": "2025-12-22T07:31:25.141152", "MEAN_MOTION": 2.13102698, "ECCENTRICITY": 0.00113434, "INCLINATION": 64.464, "RA_OF_ASC_NODE": 318.6341, "ARG_OF_PERICENTER": 250.3607, "MEAN_ANOMALY": 109.513, "EPHEMERIS_TYPE": 0, "CLASSIFICATION_TYPE": "U", "NORAD_CAT_ID": 45358, "ELEMENT_SET_NO": 999, "REV_AT_EPOCH": 4489, "BSTAR": 0, "MEAN_MOTION_DOT": -4.2e-07, "MEAN_MOTION_DDOT": 0}, "tle": {"line1": "1 45358U 20018A   25356.31348543 -.00000042  00000+0  00000+0 0  9993", "line2": "2 45358  64.4640 318.6341 0011343 250.3607 109.5130  2.13102698 44898"}}, "geometry": {"type": "Point", "coordinates": [137.1278492054374, 3.028792151079348]}}, {"type": "Feature", "properties": {"norad_id": 46805, "name": "COSMOS 2547 (705K)", "group": "glo-ops", "lat": 28.981995594837176, "lon": -146.3877740904923, "alt_km": 19141.804134600774, "timestamp": "2025-12-23T11:34:48.425844+00:00", "meta": {"OBJECT_NAME": "COSMOS 2547 (705K)", "OBJECT_ID": "2020-075A", "EPOCH": "2025-12-22T23:18:06.854688", "MEAN_MOTION": 2.13100221, "ECCENTRICITY": 0.0006107, "INCLINATION": 64.5968, "RA_OF_ASC_NODE": 198.3547, "ARG_OF_PERICENTER": 227.5279, "MEAN_ANOMALY": 132.4843, "EPHEMERIS_TYPE": 0, "CLASSIFICATION_TYPE": "U", "NORAD_CAT_ID": 46805, "ELEMENT_SET_NO": 999, "REV_AT_EPOCH": 4015, "BSTAR": 0, "MEAN_MOTION_DOT": 9.5e-07, "MEAN_MOTION_DDOT": 0}, "tle": {"line1": "1 46805U 20075A   25356.97091267  .00000095  00000+0  00000+0 0  9991", "line2": "2 46805  64.5968 198.3547 0006107 227.5279 132.4843  2.13100221 40155"}}, "geometry": {"type": "Point", "coordinates": [-146.3877740904923, 28.981995594837176]}}, {"type": "Feature", "properties": {"norad_id": 52984, "name": "COSMOS 2557 (706K)", "group": "glo-ops", "lat": -64.04894396881369, "lon": -139.51543831909245, "alt_km": 19102.76853343012, "timestamp": "2025-12-23T11:34:48.425854+00:00", "meta": {"OBJECT_NAME": "COSMOS 2557 (706K)", "OBJECT_ID": "2022-075A", "EPOCH": "2025-12-23T03:16:01.943040", "MEAN_MOTION": 2.13102047, "ECCENTRICITY": 0.0013536, "INCLINATION": 64.4039, "RA_OF_ASC_NODE": 320.6863, "ARG_OF_PERICENTER": 278.4339, "MEAN_ANOMALY": 81.4107, "EPHEMERIS_TYPE": 0, "CLASSIFICATION_TYPE": "U", "NORAD_CAT_ID": 52984, "ELEMENT_SET_NO": 999, "REV_AT_EPOCH": 2696, "BSTAR": 0, "MEAN_MOTION_DOT": -3.9e-07, "MEAN_MOTION_DDOT": 0}, "tle": {"line1": "1 52984U 22075A   25357.13613360 -.00000039  00000+0  00000+0 0  9990", "line2": "2 52984  64.4039 320.6863 0013536 278.4339  81.4107  2.13102047 26962"}}, "geometry": {"type": "Point", "coordinates": [-139.51543831909245, -64.04894396881369]}}, {"type": "Feature", "properties": {"norad_id": 54031, "name": "COSMOS 2559 (707K)", "group": "glo-ops", "lat": 39.055904638414106, "lon": -16.350966150398076, "alt_km": 19150.16124985242, "timestamp": "2025-12-23T11:34:48.425864+00:00", "meta": {"OBJECT_NAME": "COSMOS 2559 (707K)", "OBJECT_ID": "2022-130A", "EPOCH": "2025-12-22T22:55:41.344032", "MEAN_MOTION": 2.131013, "ECCENTRICITY": 0.0011532, "INCLINATION": 64.3764, "RA_OF_ASC_NODE": 320.7818, "ARG_OF_PERICENTER": 191.7827, "MEAN_ANOMALY": 168.1884, "EPHEMERIS_TYPE": 0, "CLASSIFICATION_TYPE": "U", "NORAD_CAT_ID": 54031, "ELEMENT_SET_NO": 999, "REV_AT_EPOCH": 2493, "BSTAR": 0, "MEAN_MOTION_DOT": -4e-07, "MEAN_MOTION_DDOT": 0}, "tle": {"line1": "1 54031U 22130A   25356.95533963 -.00000040  00000+0  00000+0 0  9998", "line2": "2 54031  64.3764 320.7818 0011532 191.7827 168.1884  2.13101300 24936"}}, "geometry": {"type": "Point", "coordinates": [-16.350966150398076, 39.055904638414106]}}, {"type": "Feature", "properties": {"norad_id": 54377, "name": "COSMOS 2564 (761)", "group": "glo-ops", "lat": 14.475131562156774, "lon": 11.541362793078168, "alt_km": 19111.754315377806, "timestamp": "2025-12-23T11:34:48.425874+00:00", "meta": {"OBJECT_NAME": "COSMOS 2564 (761)", "OBJECT_ID": "2022-161A", "EPOCH": "2025-12-22T19:11:15.319968", "MEAN_MOTION": 2.13102042, "ECCENTRICITY": 0.0008546, "INCLINATION": 64.7388, "RA_OF_ASC_NODE": 198.5647, "ARG_OF_PERICENTER": 203.7015, "MEAN_ANOMALY": 156.3241, "EPHEMERIS_TYPE": 0, "CLASSIFICATION_TYPE": "U", "NORAD_CAT_ID": 54377, "ELEMENT_SET_NO": 999, "REV_AT_EPOCH": 2387, "BSTAR": 0, "MEAN_MOTION_DOT": 9.5e-07, "MEAN_MOTION_DDOT": 0}, "tle": {"line1": "1 54377U 22161A   25356.79948287  .00000095  00000+0  00000+0 0  9995", "line2": "2 54377  64.7388 198.5647 0008546 203.7015 156.3241  2.13102042 23872"}}, "geometry": {"type": "Point", "coordinates": [11.541362793078168, 14.475131562156774]}}, {"type": "Feature", "properties": {"norad_id": 57517, "name": "COSMOS 2569 (703K)", "group": "glo-ops", "lat": 23.80759825271674, "lon": -113.18747429939542, "alt_km": 19146.147162114397, "timestamp": "2025-12-23T11:34:48.425884+00:00", "meta": {"OBJECT_NAME": "COSMOS 2569 (703K)", "OBJECT_ID": "2023-114A", "EPOCH": "2025-12-22T08:14:44.480832", "MEAN_MOTION": 2.13104025, "ECCENTRICITY": 0.00108594, "INCLINATION": 65.199, "RA_OF_ASC_NODE": 78.589, "ARG_OF_PERICENTER": 287.0596, "MEAN_ANOMALY": 72.8655, "EPHEMERIS_TYPE": 0, "CLASSIFICATION_TYPE": "U", "NORAD_CAT_ID": 57517, "ELEMENT_SET_NO": 999, "REV_AT_EPOCH": 1849, "BSTAR": 0, "MEAN_MOTION_DOT": -3e-08, "MEAN_MOTION_DDOT": 0}, "tle": {"line1": "1 57517U 23114A   25356.34357038 -.00000003  00000+0  00000+0 0  9992", "line2": "2 57517  65.1990  78.5890 0010859 287.0596  72.8655  2.13104025 18497"}}, "geometry": {"type": "Point", "coordinates": [-113.18747429939542, 23.80759825271674]}}, {"type": "Feature", "properties": {"norad_id": 63130, "name": "COSMOS 2584 (704K)", "group": "glo-ops", "lat": -52.25353641342961, "lon": -64.17519328511482, "alt_km": 19117.260576428158, "timestamp": "2025-12-23T11:34:48.425894+00:00", "meta": {"OBJECT_NAME": "COSMOS 2584 (704K)", "OBJECT_ID": "2025-042A", "EPOCH": "2025-12-22T05:31:29.288640", "MEAN_MOTION": 2.1310305, "ECCENTRICITY": 0.00077501, "INCLINATION": 64.9809, "RA_OF_ASC_NODE": 78.8228, "ARG_OF_PERICENTER": 219.7586, "MEAN_ANOMALY": 140.2275, "EPHEMERIS_TYPE": 0, "CLASSIFICATION_TYPE": "U", "NORAD_CAT_ID": 63130, "ELEMENT_SET_NO": 999, "REV_AT_EPOCH": 627, "BSTAR": 0, "MEAN_MOTION_DOT": -4e-08, "MEAN_MOTION_DDOT": 0}, "tle": {"line1": "1 63130U 25042A   25356.23020010 -.00000004  00000+0  00000+0 0  9998", "line2": "2 63130  64.9809  78.8228 0007750 219.7586 140.2275  2.13103050  6274"}}, "geometry": {"type": "Point", "coordinates": [-64.17519328511482, -52.25353641342961]}}, {"type": "Feature", "properties": {"norad_id": 65590, "name": "COSMOS 2596 (708K)", "group": "glo-ops", "lat": -0.7073475753478203, "lon": -39.24831136381355, "alt_km": 19108.405678905365, "timestamp": "2025-12-23T11:34:48.425904+00:00", "meta": {"OBJECT_NAME": "COSMOS 2596 (708K)", "OBJECT_ID": "2025-206B", "EPOCH": "2025-12-23T03:22:08.901120", "MEAN_MOTION": 2.13100363, "ECCENTRICITY": 0.0014093, "INCLINATION": 64.7387, "RA_OF_ASC_NODE": 321.1139, "ARG_OF_PERICENTER": 307.3847, "MEAN_ANOMALY": 149.2418, "EPHEMERIS_TYPE": 0, "CLASSIFICATION_TYPE": "U", "NORAD_CAT_ID": 65590, "ELEMENT_SET_NO": 999, "REV_AT_EPOCH": 216, "BSTAR": 0, "MEAN_MOTION_DOT": -3.8e-07, "MEAN_MOTION_DDOT": 0}, "tle": {"line1": "1 65590U 25206B   25357.14038080 -.00000038  00000+0  00000+0 0  9996", "line2": "2 65590  64.7387 321.1139 0014093 307.3847 149.2418  2.13100363  2168"}}, "geometry": {"type": "Point", "coordinates": [-39.24831136381355, -0.7073475753478203]}}]}